[{"OBJECT_NAME":"STARLINK-2227","OBJECT_ID":"2021-041Y","EPOCH":"2026-03-09T08:20:51.194400","MEAN_MOTION":15.30195716,"ECCENTRICITY":0.0001546,"INCLINATION":53.1623,"RA_OF_ASC_NODE":89.8181,"ARG_OF_PERICENTER":103.909,"MEAN_ANOMALY":256.2083,"EPHEMERIS_TYPE":0,"CLASSIFICATION_TYPE":"U","NORAD_CAT_ID":48575,"ELEMENT_SET_NO":999,"REV_AT_EPOCH":26577,"BSTAR":1.3453916e-5,"MEAN_MOTION_DOT":3.9e-7,"MEAN_MOTION_DDOT":0},{"OBJECT_NAME":"OBJECT B","OBJECT_ID":"2024-205B","EPOCH":"2026-03-09T23:46:05.115936","MEAN_MOTION":15.28158697,"ECCENTRICITY":0.00105957,"INCLINATION":97.4192,"RA_OF_ASC_NODE":146.9311,"ARG_OF_PERICENTER":34.0947,"MEAN_ANOMALY":326.0972,"EPHEMERIS_TYPE":0,"CLASSIFICATION_TYPE":"U","NORAD_CAT_ID":61895,"ELEMENT_SET_NO":999,"REV_AT_EPOCH":7352,"BSTAR":0.00054154807,"MEAN_MOTION_DOT":0.00014827,"MEAN_MOTION_DDOT":0}]
